NORAD_CAT_ID,OBJECT_NAME,OBJECT_TYPE,EPOCH,MEAN_MOTION,ECCENTRICITY,INCLINATION,RA_OF_ASC_NODE,ARG_OF_PERICENTER,MEAN_ANOMALY,BSTAR,MEAN_MOTION_DOT,MEAN_MOTION_DDOT,TLE_LINE0,TLE_LINE1,TLE_LINE2,SEMIMAJOR_AXIS,PERIOD,APOGEE,PERIGEE,DECAYED
49738.0,STARLINK-3143,PAYLOAD,2022-03-22 20:00:01,15.08854665,0.0002046,53.2167,168.7959,32.6142,130.7634,-0.0029765,-0.00047368,0.0,0 STARLINK-3143,1 49738U 21115Q   22081.83334491 -.00047368  00000-0 -29765-2 0  9990,2 49738  53.2167 168.7959 0002046  32.6142 130.7634 15.08854665 18069,6917.8359999999975,95.437,541.116,538.285,0.0
49738.0,STARLINK-3143,PAYLOAD,2022-03-22 22:00:01,15.0884674,0.0001962,53.2169,168.4212,33.2542,223.0877,-0.0026656,-0.0004247,0.0,0 STARLINK-3143,1 49738U 21115Q   22081.91668981 -.00042470  00000-0 -26656-2 0  9998,2 49738  53.2169 168.4212 0001962  33.2542 223.0877 15.08846740  3601,6917.86,95.437,541.082,538.368,0.0
49738.0,STARLINK-3143,PAYLOAD,2022-03-23 14:00:01,15.0882341,0.0002088,53.2168,165.4298,33.5409,245.9112,0.0014744,0.00023245,0.0,0 STARLINK-3143,1 49738U 21115Q   22082.58334491  .00023245  00000-0  14744-2 0  9990,2 49738  53.2168 165.4298 0002088  33.5409 245.9112 15.08823410 18189,6917.931,95.439,541.241,538.352,0.0
49738.0,STARLINK-3143,PAYLOAD,2022-03-23 22:00:00,15.08867949,0.0001995,53.2164,163.9323,35.0124,256.024,-0.0042468,-0.00067298,0.0,0 STARLINK-3143,1 49738U 21115Q   22082.91667824 -.00067298  00000-0 -42468-2 0  9998,2 49738  53.2164 163.9323 0001995  35.0124 256.0240 15.08867949  3605,6917.795,95.436,541.04,538.28,0.0
49738.0,STARLINK-3143,PAYLOAD,2022-03-24 06:00:00,15.08827261,0.0001961,53.2165,162.4354,41.2247,261.4096,0.00061718,9.545e-05,0.0,0 STARLINK-3143,1 49738U 21115Q   22083.25001157  .00009545  00000-0  61718-3 0  9996,2 49738  53.2165 162.4354 0001961  41.2247 261.4096 15.08827261 18284,6917.919,95.438,541.141,538.428,0.0
49738.0,STARLINK-3143,PAYLOAD,2022-03-24 14:00:01,15.08812886,0.0002198,53.2164,160.9409,37.018,277.2008,0.0018044,0.00028525,0.0,0 STARLINK-3143,1 49738U 21115Q   22083.58334491  .00028525  00000-0  18044-2 0  9994,2 49738  53.2164 160.9409 0002198  37.0180 277.2008 15.08812886  3581,6917.9630000000025,95.439,541.349,538.308,0.0
49738.0,STARLINK-3143,PAYLOAD,2022-03-24 22:00:00,15.08847702,0.0002088,53.2161,159.4432,37.8076,287.9928,-0.0010459,-0.00016899,0.0,0 STARLINK-3143,1 49738U 21115Q   22083.91667824 -.00016899  00000-0 -10459-2 0  9995,2 49738  53.2161 159.4432 0002088  37.8076 287.9928 15.08847702  3604,6917.857,95.437,541.1659999999998,538.2769999999998,0.0
49738.0,STARLINK-3143,PAYLOAD,2022-03-25 14:00:01,15.08844783,0.0002228,53.2164,156.4519,36.1112,312.8947,-0.00072675,-0.00011838,0.0,0 STARLINK-3143,1 49738U 21115Q   22084.58334491 -.00011838  00000-0 -72675-3 0  9997,2 49738  53.2164 156.4519 0002228  36.1112 312.8947 15.08844783 18486,6917.866,95.437,541.2719999999998,538.189,0.0
49738.0,STARLINK-3143,PAYLOAD,2022-03-25 22:00:01,15.0883666,0.0002086,53.2164,154.9539,35.8636,324.8032,-0.00070754,-0.0001153,0.0,0 STARLINK-3143,1 49738U 21115Q   22084.91668981 -.00011530  00000-0 -70754-3 0  9993,2 49738  53.2164 154.9539 0002086  35.8636 324.8032 15.08836660  3645,6917.891,95.438,541.1990000000002,538.313,0.0
49738.0,STARLINK-3143,PAYLOAD,2022-03-26 14:00:01,15.08836703,0.0002259,53.2167,151.9628,34.0773,349.7227,-0.00028363,-4.799e-05,0.0,0 STARLINK-3143,1 49738U 21115Q   22085.58334491 -.00004799  00000-0 -28363-3 0  9991,2 49738  53.2167 151.9628 0002259  34.0773 349.7227 15.08836703 18634,6917.89,95.438,541.318,538.193,0.0
49738.0,STARLINK-3143,PAYLOAD,2022-03-26 22:00:00,15.08828689,0.0002102,53.2169,150.4649,34.1217,1.2708,-0.00021929,-3.776e-05,0.0,0 STARLINK-3143,1 49738U 21115Q   22085.91667824 -.00003776  00000-0 -21929-3 0  9992,2 49738  53.2169 150.4649 0002102  34.1217   1.2708 15.08828689  3591,6917.915,95.438,541.234,538.326,0.0
49738.0,STARLINK-3143,PAYLOAD,2022-03-27 14:00:01,15.08795272,0.0002272,53.2174,147.4739,30.7861,27.7643,0.0031289,0.000498,0.0,0 STARLINK-3143,1 49738U 21115Q   22086.58334491  .00049800  00000-0  31289-2 0  9992,2 49738  53.2174 147.4739 0002272  30.7861  27.7643 15.08795272  3602,6918.017,95.44,541.4540000000002,538.31,0.0
49738.0,STARLINK-3143,PAYLOAD,2022-03-27 22:00:01,15.08826621,0.0002118,53.2176,145.9759,32.7643,37.4185,0.00067554,0.00010476,0.0,0 STARLINK-3143,1 49738U 21115Q   22086.91668981  .00010476  00000-0  67554-3 0  9995,2 49738  53.2176 145.9759 0002118  32.7643  37.4185 15.08826621 18831,6917.920999999999,95.438,541.251,538.321,0.0
49738.0,STARLINK-3143,PAYLOAD,2022-03-28 14:00:01,15.08833744,0.0002342,53.2177,142.985,30.9986,62.3766,0.002602,0.0004136,0.0,0 STARLINK-3143,1 49738U 21115Q   22087.58335648  .00041360  00000-0  26020-2 0  9998,2 49738  53.2177 142.9850 0002342  30.9986  62.3766 15.08833744  3605,6917.9,95.438,541.385,538.144,0.0
49738.0,STARLINK-3143,PAYLOAD,2022-03-28 22:00:00,15.088385999999998,0.0002101,53.2179,141.4869,31.8458,73.0798,-0.00017197,-3.024e-05,0.0,0 STARLINK-3143,1 49738U 21115Q   22087.91667824 -.00003024  00000-0 -17197-3 0  9992,2 49738  53.2179 141.4869 0002101  31.8458  73.0798 15.08838600  3574,6917.885,95.438,541.203,538.2959999999998,0.0
49738.0,STARLINK-3143,PAYLOAD,2022-03-29 06:00:02,15.0886416,0.0002103,53.2179,139.9909,32.0698,84.5032,-0.0037538,-0.00059577,0.0,0 STARLINK-3143,1 49738U 21115Q   22088.25002315 -.00059577  00000-0 -37538-2 0  9992,2 49738  53.2179 139.9909 0002103  32.0698  84.5032 15.08864160 19038,6917.807,95.436,541.126,538.217,0.0
49738.0,STARLINK-3143,PAYLOAD,2022-03-29 14:00:01,15.08799123,0.0002277,53.2176,138.496,27.3608,100.7539,0.0034768,0.00055419,0.0,0 STARLINK-3143,1 49738U 21115Q   22088.58334491  .00055419  00000-0  34768-2 0  9992,2 49738  53.2176 138.4960 0002277  27.3608 100.7539 15.08799123  3566,6918.005,95.44,541.446,538.295,0.0
49738.0,STARLINK-3143,PAYLOAD,2022-03-29 22:00:00,15.08821499,0.0002064,53.2176,136.998,30.0006,109.6908,0.0016382,0.00025867,0.0,0 STARLINK-3143,1 49738U 21115Q   22088.91667824  .00025867  00000-0  16382-2 0  9994,2 49738  53.2176 136.9980 0002064  30.0006 109.6908 15.08821499 19138,6917.937,95.439,541.23,538.374,0.0
49738.0,STARLINK-3143,PAYLOAD,2022-03-30 14:00:01,15.08836553,0.0002277,53.2171,134.0068,27.8823,135.0592,0.00057367,8.853e-05,0.0,0 STARLINK-3143,1 49738U 21115Q   22089.58335648  .00008853  00000-0  57367-3 0  9999,2 49738  53.2171 134.0068 0002277  27.8823 135.0592 15.08836553  3565,6917.891,95.438,541.331,538.181,0.0
49738.0,STARLINK-3143,PAYLOAD,2022-03-30 20:00:01,15.08838919,0.0002094,53.217,132.8833,29.3617,52.2163,-0.0012936,-0.00020817,0.0,0 STARLINK-3143,1 49738U 21115Q   22089.83334491 -.00020817  00000-0 -12936-2 0  9990,2 49738  53.2170 132.8833 0002094  29.3617  52.2163 15.08838919 19272,6917.884,95.438,541.197,538.3,0.0
49738.0,STARLINK-3143,PAYLOAD,2022-03-30 22:00:00,15.08813858,0.0002029,53.2169,132.5089,29.0897,145.3927,0.0019726,0.00031223,0.0,0 STARLINK-3143,1 49738U 21115Q   22089.91667824  .00031223  00000-0  19726-2 0  9993,2 49738  53.2169 132.5089 0002029  29.0897 145.3927 15.08813858  3613,6917.96,95.439,541.229,538.422,0.0
49738.0,STARLINK-3143,PAYLOAD,2022-03-31 14:00:01,15.08829408,0.0002307,53.2164,129.5178,28.9445,168.7156,0.0021256,0.00033694,0.0,0 STARLINK-3143,1 49738U 21115Q   22090.58334491  .00033694  00000-0  21256-2 0  9994,2 49738  53.2164 129.5178 0002307  28.9445 168.7156 15.08829408 19381,6917.913000000001,95.438,541.374,538.182,0.0
49738.0,STARLINK-3143,PAYLOAD,2022-03-31 22:00:00,15.0881559,0.0002016,53.2162,128.0195,28.4382,180.8016,0.0027679,0.00044009,0.0,0 STARLINK-3143,1 49738U 21115Q   22090.91667824  .00044009  00000-0  27679-2 0  9997,2 49738  53.2162 128.0195 0002016  28.4382 180.8016 15.08815590 19437,6917.955,95.439,541.215,538.425,0.0
49738.0,STARLINK-3143,PAYLOAD,2022-04-01 14:00:01,15.08809687,0.0002244,53.2157,125.0285,25.1384,207.2776,0.0026537,0.00042164,0.0,0 STARLINK-3143,1 49738U 21115Q   22091.58334491  .00042164  00000-0  26537-2 0  9994,2 49738  53.2157 125.0285 0002244  25.1384 207.2776 15.08809687 19535,6917.973000000001,95.439,541.39,538.286,0.0
49738.0,STARLINK-3143,PAYLOAD,2022-04-01 22:00:00,15.08827962,0.0002073,53.2157,123.5302,29.1949,214.8103,0.0012264,0.00019278,0.0,0 STARLINK-3143,1 49738U 21115Q   22091.91667824  .00019278  00000-0  12264-2 0  9992,2 49738  53.2157 123.5302 0002073  29.1949 214.8103 15.08827962  3570,6917.917,95.438,541.216,538.3480000000002,0.0
49738.0,STARLINK-3143,PAYLOAD,2022-04-02 06:00:00,15.08841081,0.0002232,53.2157,122.0347,31.9891,223.607,-0.0012933,-0.00020813,0.0,0 STARLINK-3143,1 49738U 21115Q   22092.25001157 -.00020813  00000-0 -12933-2 0  9993,2 49738  53.2157 122.0347 0002232  31.9891 223.6070 15.08841081 19641,6917.877,95.437,541.286,538.198,0.0
49738.0,STARLINK-3143,PAYLOAD,2022-04-02 22:00:01,15.0882354,0.0002184,53.2157,119.0406,31.6693,247.1728,0.00080467,0.00012536,0.0,0 STARLINK-3143,1 49738U 21115Q   22092.91668981  .00012536  00000-0  80467-3 0  9999,2 49738  53.2157 119.0406 0002184  31.6693 247.1728 15.08823540 19748,6917.931,95.439,541.307,538.285,0.0
49738.0,STARLINK-3143,PAYLOAD,2022-04-03 22:00:00,15.08814018,0.0002274,53.2161,114.5512,32.975,280.5519,0.0034344,0.00054757,0.0,0 STARLINK-3143,1 49738U 21115Q   22093.91667824  .00054757  00000-0  34344-2 0  9998,2 49738  53.2161 114.5512 0002274  32.9750 280.5519 15.08814018 19894,6917.96,95.439,541.398,538.252,0.0
49738.0,STARLINK-3143,PAYLOAD,2022-04-04 14:00:01,15.08864294,0.0002511,53.2164,111.56,29.6853,307.0304,-0.0021944,-0.00035068,0.0,0 STARLINK-3143,1 49738U 21115Q   22094.58334491 -.00035068  00000-0 -21944-2 0  9991,2 49738  53.2164 111.5600 0002511  29.6853 307.0304 15.08864294 19992,6917.806,95.436,541.408,537.934,0.0
